[{"OBJECT_NAME":"STARLINK-35186","OBJECT_ID":"2025-207V","EPOCH":"2026-03-09T17:36:36.958176","MEAN_MOTION":15.05644925,"ECCENTRICITY":3.438e-5,"INCLINATION":97.6037,"RA_OF_ASC_NODE":138.6399,"ARG_OF_PERICENTER":92.9692,"MEAN_ANOMALY":267.1574,"EPHEMERIS_TYPE":0,"CLASSIFICATION_TYPE":"U","NORAD_CAT_ID":65611,"ELEMENT_SET_NO":999,"REV_AT_EPOCH":2826,"BSTAR":0.00015310109,"MEAN_MOTION_DOT":2.149e-5,"MEAN_MOTION_DDOT":0},{"OBJECT_NAME":"KUIPER-00139","OBJECT_ID":"2025-217D","EPOCH":"2026-03-09T07:26:02.378400","MEAN_MOTION":15.01890214,"ECCENTRICITY":0.00071199,"INCLINATION":51.8865,"RA_OF_ASC_NODE":35.54,"ARG_OF_PERICENTER":318.901,"MEAN_ANOMALY":41.1425,"EPHEMERIS_TYPE":0,"CLASSIFICATION_TYPE":"U","NORAD_CAT_ID":65765,"ELEMENT_SET_NO":999,"REV_AT_EPOCH":2495,"BSTAR":0.00087196011,"MEAN_MOTION_DOT":0.00011274,"MEAN_MOTION_DDOT":0}]
