STARLINK-35186          
1 65611U 25207V   26068.73376109  .00002149  00000+0  15310-3 0  9991
2 65611  97.6037 138.6399 0000344  92.9692 267.1574 15.05644925 28261
KUIPER-00139            
1 65765U 25217D   26068.30974975  .00011274  00000+0  87196-3 0  9990
2 65765  51.8865  35.5400 0007119 318.9010  41.1425 15.01890214 24959
